start=new Date('2022-12-18T00:00:00.000Z').valueOf();
sats=[{"RA_OF_ASC_NODE":"170.1952","PERIAPSIS":"562.807","TIME_SYSTEM":"UTC","ECCENTRICITY":"0.00002850","ELEMENT_SET_NO":"999","GP_ID":"220709112","COUNTRY_CODE":"US","TLE_LINE2":"2 53059  97.6531 170.1952 0000285  45.9843 314.1405 15.01262150 24151","MEAN_MOTION":"15.01262150","ARG_OF_PERICENTER":"45.9843","MEAN_ANOMALY":"314.1405","APOAPSIS":"563.203","SEMIMAJOR_AXIS":"6941.140","LAUNCH_DATE":"2022-07-11","BSTAR":"0.00015113000000","MEAN_ELEMENT_THEORY":"SGP4","MEAN_MOTION_DDOT":"0.0000000000000","NORAD_CAT_ID":"53059","MEAN_MOTION_DOT":"0.00001883","TLE_LINE1":"1 53059U 22077S   22351.53460223  .00001883  00000-0  15113-3 0  9992","RCS_SIZE":"LARGE","OBJECT_NAME":"STARLINK-4320","EPHEMERIS_TYPE":"0","FILE":"3705911","INCLINATION":"97.6531","OBJECT_ID":"2022-077S","SITE":"AFWTR","DECAY_DATE":null,"CENTER_NAME":"EARTH","REV_AT_EPOCH":"2415","CLASSIFICATION_TYPE":"U","PERIOD":"95.919","REF_FRAME":"TEME","OBJECT_TYPE":"PAYLOAD","EPOCH":"2022-12-17T12:49:49.632672"},{"ELEMENT_SET_NO":"999","COUNTRY_CODE":"US","GP_ID":"220760491","ARG_OF_PERICENTER":"159.1469","TLE_LINE2":"2 53060  97.6531 170.3992 0001331 159.1469 200.9810 15.01250719 24187","MEAN_MOTION":"15.01250719","MEAN_ANOMALY":"200.9810","PERIAPSIS":"562.117","RA_OF_ASC_NODE":"170.3992","TIME_SYSTEM":"UTC","ECCENTRICITY":"0.00013310","OBJECT_ID":"2022-077T","INCLINATION":"97.6531","REV_AT_EPOCH":"2418","DECAY_DATE":null,"CLASSIFICATION_TYPE":"U","CENTER_NAME":"EARTH","SITE":"AFWTR","EPOCH":"2022-12-17T17:45:25.210368","OBJECT_TYPE":"PAYLOAD","REF_FRAME":"TEME","PERIOD":"95.920","BSTAR":"-0.00015585000000","LAUNCH_DATE":"2022-07-11","SEMIMAJOR_AXIS":"6941.175","APOAPSIS":"563.964","NORAD_CAT_ID":"53060","MEAN_MOTION_DDOT":"0.0000000000000","MEAN_ELEMENT_THEORY":"SGP4","OBJECT_NAME":"STARLINK-4305","RCS_SIZE":"LARGE","TLE_LINE1":"1 53060U 22077T   22351.73987512 -.00002060  00000-0 -15585-3 0  9994","MEAN_MOTION_DOT":"-0.00002060","FILE":"3707070","EPHEMERIS_TYPE":"0"},{"ECCENTRICITY":"0.00005320","RA_OF_ASC_NODE":"170.1285","PERIAPSIS":"562.647","TIME_SYSTEM":"UTC","TLE_LINE2":"2 53061  97.6546 170.1285 0000532 353.8895   6.2323 15.01258630 24147","MEAN_MOTION":"15.01258630","ARG_OF_PERICENTER":"353.8895","MEAN_ANOMALY":"6.2323","ELEMENT_SET_NO":"999","GP_ID":"220708297","COUNTRY_CODE":"US","MEAN_MOTION_DOT":"-0.00000146","TLE_LINE1":"1 53061U 22077U   22351.46585970 -.00000146  00000-0 -68158-5 0  9996","RCS_SIZE":"LARGE","OBJECT_NAME":"STARLINK-4308","EPHEMERIS_TYPE":"0","FILE":"3705911","APOAPSIS":"563.385","SEMIMAJOR_AXIS":"6941.151","LAUNCH_DATE":"2022-07-11","BSTAR":"-0.00000681580000","MEAN_ELEMENT_THEORY":"SGP4","MEAN_MOTION_DDOT":"0.0000000000000","NORAD_CAT_ID":"53061","PERIOD":"95.920","REF_FRAME":"TEME","OBJECT_TYPE":"PAYLOAD","EPOCH":"2022-12-17T11:10:50.278080","INCLINATION":"97.6546","OBJECT_ID":"2022-077U","SITE":"AFWTR","DECAY_DATE":null,"CLASSIFICATION_TYPE":"U","REV_AT_EPOCH":"2414","CENTER_NAME":"EARTH"},{"RCS_SIZE":"LARGE","MEAN_MOTION_DOT":"0.00001760","TLE_LINE1":"1 53062U 22077V   22351.73617115  .00001760  00000-0  14155-3 0  9991","OBJECT_NAME":"STARLINK-4311","FILE":"3707070","EPHEMERIS_TYPE":"0","APOAPSIS":"563.611","LAUNCH_DATE":"2022-07-11","BSTAR":"0.00014155000000","SEMIMAJOR_AXIS":"6941.142","MEAN_ELEMENT_THEORY":"SGP4","NORAD_CAT_ID":"53062","MEAN_MOTION_DDOT":"0.0000000000000","REF_FRAME":"TEME","OBJECT_TYPE":"PAYLOAD","PERIOD":"95.919","EPOCH":"2022-12-17T17:40:05.187360","INCLINATION":"97.6536","OBJECT_ID":"2022-077V","SITE":"AFWTR","DECAY_DATE":null,"REV_AT_EPOCH":"2418","CENTER_NAME":"EARTH","CLASSIFICATION_TYPE":"U","ECCENTRICITY":"0.00008710","RA_OF_ASC_NODE":"170.3953","PERIAPSIS":"562.402","TIME_SYSTEM":"UTC","ARG_OF_PERICENTER":"138.2894","TLE_LINE2":"2 53062  97.6536 170.3953 0000871 138.2894 221.8397 15.01261717 24181","MEAN_MOTION":"15.01261717","MEAN_ANOMALY":"221.8397","ELEMENT_SET_NO":"999","GP_ID":"220759638","COUNTRY_CODE":"US"},{"ECCENTRICITY":"0.00033350","TIME_SYSTEM":"UTC","PERIAPSIS":"563.188","RA_OF_ASC_NODE":"170.4588","MEAN_ANOMALY":"180.3259","MEAN_MOTION":"15.00451827","TLE_LINE2":"2 53063  97.6512 170.4588 0003335 179.7966 180.3259 15.00451827 24198","ARG_OF_PERICENTER":"179.7966","COUNTRY_CODE":"US","GP_ID":"220759852","ELEMENT_SET_NO":"999","EPHEMERIS_TYPE":"0","FILE":"3707070","OBJECT_NAME":"STARLINK-4307","TLE_LINE1":"1 53063U 22077W   22351.74685658  .00001836  00000-0  15060-3 0  9990","MEAN_MOTION_DOT":"0.00001836","RCS_SIZE":"LARGE","MEAN_MOTION_DDOT":"0.0000000000000","NORAD_CAT_ID":"53063","MEAN_ELEMENT_THEORY":"SGP4","SEMIMAJOR_AXIS":"6943.639","LAUNCH_DATE":"2022-07-11","BSTAR":"0.00015060000000","APOAPSIS":"567.820","EPOCH":"2022-12-17T17:55:28.408512","PERIOD":"95.971","REF_FRAME":"TEME","OBJECT_TYPE":"PAYLOAD","CLASSIFICATION_TYPE":"U","DECAY_DATE":null,"REV_AT_EPOCH":"2419","CENTER_NAME":"EARTH","SITE":"AFWTR","OBJECT_ID":"2022-077W","INCLINATION":"97.6512"},{"TIME_SYSTEM":"UTC","PERIAPSIS":"562.649","RA_OF_ASC_NODE":"170.1947","ECCENTRICITY":"0.00005570","COUNTRY_CODE":"US","GP_ID":"220718092","ELEMENT_SET_NO":"999","MEAN_ANOMALY":"266.3878","ARG_OF_PERICENTER":"93.7409","TLE_LINE2":"2 53064  97.6534 170.1947 0000557  93.7409 266.3878 15.01252314 24732","MEAN_MOTION":"15.01252314","NORAD_CAT_ID":"53064","MEAN_MOTION_DDOT":"0.0000000000000","MEAN_ELEMENT_THEORY":"SGP4","BSTAR":"0.00004773900000","LAUNCH_DATE":"2022-07-11","SEMIMAJOR_AXIS":"6941.171","APOAPSIS":"563.422","FILE":"3706337","EPHEMERIS_TYPE":"0","OBJECT_NAME":"STARLINK-4313","RCS_SIZE":"LARGE","TLE_LINE1":"1 53064U 22077X   22351.53436589  .00000554  00000-0  47739-4 0  9990","MEAN_MOTION_DOT":"0.00000554","DECAY_DATE":null,"REV_AT_EPOCH":"2473","CENTER_NAME":"EARTH","CLASSIFICATION_TYPE":"U","SITE":"AFWTR","OBJECT_ID":"2022-077X","INCLINATION":"97.6534","EPOCH":"2022-12-17T12:49:29.212896","REF_FRAME":"TEME","OBJECT_TYPE":"PAYLOAD","PERIOD":"95.920"},{"APOAPSIS":"564.023","SEMIMAJOR_AXIS":"6941.134","BSTAR":"0.00007749100000","LAUNCH_DATE":"2022-07-11","MEAN_ELEMENT_THEORY":"SGP4","MEAN_MOTION_DDOT":"0.0000000000000","NORAD_CAT_ID":"53065","MEAN_MOTION_DOT":"0.00000937","TLE_LINE1":"1 53065U 22077Y   22351.46215203  .00000937  00000-0  77491-4 0  9994","RCS_SIZE":"LARGE","OBJECT_NAME":"STARLINK-4312","EPHEMERIS_TYPE":"0","FILE":"3705911","INCLINATION":"97.6561","OBJECT_ID":"2022-077Y","SITE":"AFWTR","DECAY_DATE":null,"CENTER_NAME":"EARTH","REV_AT_EPOCH":"2414","CLASSIFICATION_TYPE":"U","PERIOD":"95.919","OBJECT_TYPE":"PAYLOAD","REF_FRAME":"TEME","EPOCH":"2022-12-17T11:05:29.935392","RA_OF_ASC_NODE":"170.1250","PERIAPSIS":"561.974","TIME_SYSTEM":"UTC","ECCENTRICITY":"0.00014760","ELEMENT_SET_NO":"999","GP_ID":"220707840","COUNTRY_CODE":"US","MEAN_MOTION":"15.01264320","TLE_LINE2":"2 53065  97.6561 170.1250 0001476  31.2540 328.8772 15.01264320 24146","ARG_OF_PERICENTER":"31.2540","MEAN_ANOMALY":"328.8772"},{"EPOCH":"2022-12-17T11:08:10.653216","OBJECT_TYPE":"PAYLOAD","REF_FRAME":"TEME","PERIOD":"95.919","OBJECT_ID":"2022-077Z","INCLINATION":"97.6551","DECAY_DATE":null,"CENTER_NAME":"EARTH","REV_AT_EPOCH":"2472","CLASSIFICATION_TYPE":"U","SITE":"AFWTR","OBJECT_NAME":"STARLINK-4309","RCS_SIZE":"LARGE","TLE_LINE1":"1 53066U 22077Z   22351.46401219  .00001205  00000-0  98352-4 0  9997","MEAN_MOTION_DOT":"0.00001205","FILE":"3706058","EPHEMERIS_TYPE":"0","LAUNCH_DATE":"2022-07-11","BSTAR":"0.00009835200000","SEMIMAJOR_AXIS":"6941.141","APOAPSIS":"564.127","NORAD_CAT_ID":"53066","MEAN_MOTION_DDOT":"0.0000000000000","MEAN_ELEMENT_THEORY":"SGP4","ARG_OF_PERICENTER":"63.1169","MEAN_MOTION":"15.01261801","TLE_LINE2":"2 53066  97.6551 170.1251 0001615  63.1169 297.0220 15.01261801 24723","MEAN_ANOMALY":"297.0220","ELEMENT_SET_NO":"999","COUNTRY_CODE":"US","GP_ID":"220712414","ECCENTRICITY":"0.00016150","PERIAPSIS":"561.885","RA_OF_ASC_NODE":"170.1251","TIME_SYSTEM":"UTC"},{"PERIOD":"95.919","REF_FRAME":"TEME","OBJECT_TYPE":"PAYLOAD","EPOCH":"2022-12-17T11:00:10.287360","INCLINATION":"97.6591","OBJECT_ID":"2022-077AA","SITE":"AFWTR","CENTER_NAME":"EARTH","DECAY_DATE":null,"REV_AT_EPOCH":"2472","CLASSIFICATION_TYPE":"U","TLE_LINE1":"1 53067U 22077AA  22351.45845240  .00000741  00000-0  62281-4 0  9999","MEAN_MOTION_DOT":"0.00000741","RCS_SIZE":"LARGE","OBJECT_NAME":"STARLINK-4306","EPHEMERIS_TYPE":"0","FILE":"3706064","APOAPSIS":"564.438","SEMIMAJOR_AXIS":"6941.124","LAUNCH_DATE":"2022-07-11","BSTAR":"0.00006228100000","MEAN_ELEMENT_THEORY":"SGP4","MEAN_MOTION_DDOT":"0.0000000000000","NORAD_CAT_ID":"53067","TLE_LINE2":"2 53067  97.6591 170.1256 0002087  39.9580 320.1798 15.01267293 24724","MEAN_MOTION":"15.01267293","ARG_OF_PERICENTER":"39.9580","MEAN_ANOMALY":"320.1798","ELEMENT_SET_NO":"999","GP_ID":"220711721","COUNTRY_CODE":"US","ECCENTRICITY":"0.00020870","RA_OF_ASC_NODE":"170.1256","PERIAPSIS":"561.541","TIME_SYSTEM":"UTC"},{"EPOCH":"2022-12-17T11:03:11.751552","PERIOD":"95.920","REF_FRAME":"TEME","OBJECT_TYPE":"PAYLOAD","OBJECT_ID":"2022-077AB","INCLINATION":"97.6571","DECAY_DATE":null,"REV_AT_EPOCH":"2472","CENTER_NAME":"EARTH","CLASSIFICATION_TYPE":"U","SITE":"AFWTR","OBJECT_NAME":"STARLINK-4325","TLE_LINE1":"1 53068U 22077AB  22351.46055268  .00002562  00000-0  20403-3 0  9996","MEAN_MOTION_DOT":"0.00002562","RCS_SIZE":"LARGE","EPHEMERIS_TYPE":"0","FILE":"3706064","SEMIMAJOR_AXIS":"6941.179","BSTAR":"0.00020403000000","LAUNCH_DATE":"2022-07-11","APOAPSIS":"564.623","MEAN_MOTION_DDOT":"0.0000000000000","NORAD_CAT_ID":"53068","MEAN_ELEMENT_THEORY":"SGP4","TLE_LINE2":"2 53068  97.6571 170.1246 0002275  25.4194 334.7142 15.01249465 24727","MEAN_MOTION":"15.01249465","ARG_OF_PERICENTER":"25.4194","MEAN_ANOMALY":"334.7142","ELEMENT_SET_NO":"999","COUNTRY_CODE":"US","GP_ID":"220711220","ECCENTRICITY":"0.00022750","PERIAPSIS":"561.465","RA_OF_ASC_NODE":"170.1246","TIME_SYSTEM":"UTC"}];
